STARLINK-2467           
1 48126U 21027AL  21198.58334491 -.01138619  00000-0 -77111-1 0  9990
2 48126  53.0496 205.8463 0001270  89.8609 218.2861 15.09103728 16650
STARLINK-2468           
1 48127U 21027AM  21198.38364220  .00000136  00000-0  28001-4 0  9998
2 48127  53.0548 226.6149 0000508  88.2012 271.9035 15.06392549 16742
STARLINK-2469           
1 48128U 21027AN  21198.58334491 -.00003135  00000-0 -17865-4 0  9998
2 48128  53.0457 199.0553 0004526   8.6900 144.0272 15.73202485  3708
STARLINK-2471           
1 48129U 21027AP  21198.30991711  .00001799  00000-0  13963-3 0  9999
2 48129  53.0547 226.9457 0000780  80.2483 279.8594 15.06399378 16737
STARLINK-2472           
1 48130U 21027AQ  21198.36564834 -.00000038  00000-0  16286-4 0  9997
2 48130  53.0572 231.6897 0000309  98.8022 261.3002 15.06388368 16679
STARLINK-2473           
1 48131U 21027AR  21198.58334491 -.01133028  00000-0 -75076-1 0  9993
2 48131  53.0528 205.7888 0001217  84.3724 260.1834 15.09878671 16653
STARLINK-2474           
1 48132U 21027AS  21198.36522788 -.00000052  00000-0  15406-4 0  9990
2 48132  53.0549 226.6991 0000560  94.3473 265.7580 15.06390166 16739
STARLINK-2475           
1 48133U 21027AT  21198.36152364  .00000123  00000-0  27121-4 0  9995
2 48133  53.0550 226.7160 0000667  67.8401 292.2659 15.06393408 16740
STARLINK-2476           
1 48134U 21027AU  21198.34678702 -.00000070  00000-0  14147-4 0  9999
2 48134  53.0547 226.7825 0000352  99.5008 260.6020 15.06389629 16731
STARLINK-2478           
1 48135U 21027AV  21198.39883372  .00000176  00000-0  30695-4 0  9998
2 48135  53.0523 231.5553 0000526 110.3600 249.7445 15.06385080 16670
STARLINK-2479           
1 48136U 21027AW  21198.37257567  .00000052  00000-0  22334-4 0  9992
2 48136  53.0542 226.6654 0000456  59.6506 300.4528 15.06380964 16742
STARLINK-2480           
1 48137U 21027AX  21198.58334491 -.01121318  00000-0 -77484-1 0  9993
2 48137  53.0460 205.8977 0001374  75.4725 200.4669 15.08325184  3643
STARLINK-2481           
1 48138U 21027AY  21198.35784100  .00000053  00000-0  22438-4 0  9996
2 48138  53.0551 226.7328 0000704  78.5461 281.5607 15.06393473 16745
STARLINK-2482           
1 48139U 21027AZ  21198.58334491 -.01136482  00000-0 -76870-1 0  9991
2 48139  53.0421 205.7372 0001435  83.6236 104.3667 15.09142241  3660
STARLINK-2483           
1 48140U 21027BA  21198.38270274  .00000146  00000-0  28694-4 0  9997
2 48140  53.0544 226.6199 0000421  90.8974 269.2063 15.06381920 16740
STARLINK-2484           
1 48141U 21027BB  21198.33940874  .00000004  00000-0  19159-4 0  9992
2 48141  53.0616 226.7944 0000874  86.8571 273.2518 15.06393456 16758
STARLINK-2485           
1 48142U 21027BC  21198.58334491 -.01137896  00000-0 -76325-1 0  9990
2 48142  53.0415 205.7398 0001444  88.6584 118.0133 15.09448658  3667
STARLINK-2486           
1 48143U 21027BD  21198.58334491 -.00005400  00000-0 -33990-4 0  9999
2 48143  53.0460 199.0586 0004561  12.4318 139.6712 15.73211102  3705
STARLINK-2487           
1 48144U 21027BE  21198.58334491 -.01135812  00000-0 -77322-1 0  9996
2 48144  53.0414 205.7354 0001459  76.8613  92.0499 15.08906301  3667
STARLINK-2488           
1 48145U 21027BF  21198.58334491 -.01134981  00000-0 -77624-1 0  9998
2 48145  53.0425 205.7347 0001449  69.2489  80.2753 15.08736051  3663
STARLINK-2489           
1 48146U 21027BG  21198.35413195 -.00001455  00000-0 -78810-4 0  9992
2 48146  53.0542 226.7475 0000737  65.2946 294.8120 15.06392662 16740
STARLINK-2490           
1 48147U 21027BH  21198.35185144  .00000043  00000-0  21738-4 0  9990
2 48147  53.0567 231.6443 0000806 111.2530 248.8545 15.06403134 16675
STARLINK-2491           
1 48148U 21027BJ  21198.38731928  .00000075  00000-0  23915-4 0  9995
2 48148  53.0540 226.6001 0000385  86.0259 274.0774 15.06398471 16739
STARLINK-2492           
1 48149U 21027BK  21198.58334491 -.01121856  00000-0 -77508-1 0  9990
2 48149  53.0454 205.9230 0001359  86.5134 184.2792 15.08332891  3641
STARLINK-2493           
1 48150U 21027BL  21198.58334491 -.01068361  00000-0 -60942-1 0  9997
2 48150  53.0516 205.6311 0001462  71.2041 123.5123 15.15043186 16666
STARLINK-2503           
1 48151U 21027BM  21198.58334491 -.01067168  00000-0 -61475-1 0  9994
2 48151  53.0534 205.6622 0001451  70.7607 108.6555 15.14694897 16654
SHIYAN 6 03 (SY-6 03)   
1 48157U 21028A   21198.70628338 -.00000034  00000-0  11956-4 0  9990
2 48157  99.5045 206.0912 0008584  12.4435 347.6922 13.70852920 13670
SOYUZ-MS 18             
1 48159U 21029A   21198.49517541  .00001281  00000-0  31573-4 0  9993
2 48159  51.6427 192.8499 0001889 161.0525 307.7576 15.48812194293295
CREW DRAGON 2           
1 48209U 21030A   21198.49517541  .00001281  00000-0  31573-4 0  9991
2 48209  51.6427 192.8499 0001889 161.0525 307.7576 15.48812194293291
ONEWEB-0176             
1 48210U 21031A   21198.58334491  .00048848  00000-0  34647-1 0  9997
2 48210  87.6996 287.4393 0008075  18.1189 238.9992 13.97287047  3481
ONEWEB-0184             
1 48211U 21031B   21198.58334491 -.01072013  00000-0 -80466+0 0  9990
2 48211  87.6784 287.4167 0008819 351.3824  66.2370 13.98002926  3495
ONEWEB-0179             
1 48212U 21031C   21198.58334491 -.01107382  00000-0 -81858+0 0  9995
2 48212  87.7210 287.4626 0010533  18.2600 309.6665 13.98979763  3479
ONEWEB-0180             
1 48213U 21031D   21198.58334491 -.01003595  00000-0 -81169+0 0  9992
2 48213  87.6468 287.4011 0008196   4.5109 132.1420 13.93517635  3464
ONEWEB-0218             
1 48214U 21031E   21198.58334491 -.01108383  00000-0 -76855+0 0  9990
2 48214  87.7410 287.4823 0009881 337.5175 359.3184 14.02590071  3475
ONEWEB-0209             
1 48215U 21031F   21198.58334491 -.01105842  00000-0 -76371+0 0  9991
2 48215  87.7485 287.4575 0008497 355.0916 336.9924 14.02813320  3492
ONEWEB-0198             
1 48216U 21031G   21198.58334491 -.00728646  00000-0 -31360+0 0  9993
2 48216  87.8325 287.2865 0005155   7.1754  64.0014 14.27508140  3509
ONEWEB-0189             
1 48217U 21031H   21198.58334491 -.01034245  00000-0 -88773+0 0  9990
2 48217  87.6297 287.3977 0010332 353.3547  63.2295 13.90179020  3467
ONEWEB-0196             
1 48218U 21031J   21198.58334491 -.01024756  00000-0 -84410+0 0  9991
2 48218  87.6688 287.3424 0007491   9.4423  97.0029 13.92538494  3458
ONEWEB-0183             
1 48219U 21031K   21198.58334491  .00041576  00000-0  29571-1 0  9997
2 48219  87.7278 287.4361 0006432  16.6850 252.5026 13.97187894  3469
ONEWEB-0185             
1 48220U 21031L   21198.58334491 -.00904436  00000-0 -74865+0 0  9998
2 48220  87.6268 287.3904 0008660 354.2217 227.1564 13.91855019  3431
ONEWEB-0187             
1 48221U 21031M   21198.58334491  .00041482  00000-0  29614-1 0  9994
2 48221  87.7290 287.3708 0009582  16.0795 319.0863 13.96967842  3456
ONEWEB-0192             
1 48222U 21031N   21198.58334491 -.00963521  00000-0 -89106+0 0  9994
2 48222  87.6328 287.3053 0007327   2.4088 136.4835 13.85610705  3439
ONEWEB-0219             
1 48223U 21031P   21198.58334491 -.01113958  00000-0 -73107+0 0  9991
2 48223  87.7477 287.4835 0009308 334.3629  97.0141 14.05681525  3471
ONEWEB-0202             
1 48224U 21031Q   21198.58334491 -.01110495  00000-0 -78170+0 0  9990
2 48224  87.7388 287.4661 0010505 354.3490  34.0452 14.01748700  3470
ONEWEB-0204             
1 48225U 21031R   21198.58334491 -.01051104  00000-0 -81863+0 0  9995
2 48225  87.6617 287.4236 0006891   7.7663 198.6223 13.95840106  3475
ONEWEB-0205             
1 48226U 21031S   21198.58334491 -.00890505  00000-0 -62864+0 0  9991
2 48226  87.6861 287.3796 0011131 354.9965 275.6318 14.00858009  3448
ONEWEB-0206             
1 48227U 21031T   21198.58334491 -.00816992  00000-0 -68376+0 0  9994
2 48227  87.6332 287.3269 0007989   7.4538 334.1843 13.91409147  3492
ONEWEB-0182             
1 48228U 21031U   21198.58334491 -.01122338  00000-0 -62330+0 0  9994
2 48228  87.8095 287.4917 0007213   4.9794 326.9317 14.14315592  3501
ONEWEB-0186             
1 48229U 21031V   21198.58334491 -.01106757  00000-0 -71785+0 0  9996
2 48229  87.7690 287.4632 0006617 344.5455 351.8964 14.06321385  3491
ONEWEB-0181             
1 48230U 21031W   21198.58334491 -.01025111  00000-0 -89181+0 0  9991
2 48230  87.6011 287.4469 0008876   4.9455 270.8179 13.89374701  3503
ONEWEB-0188             
1 48231U 21031X   21198.58334491 -.00892619  00000-0 -88089+0 0  9992
2 48231  87.6189 287.2584 0006552   8.1810 266.2518 13.82071809  3429
ONEWEB-0220             
1 48232U 21031Y   21198.58334491 -.01103923  00000-0 -68942+0 0  9993
2 48232  87.7780 287.4534 0009825 340.4292 104.6108 14.08391305  3488
ONEWEB-0165             
1 48233U 21031Z   21198.58334491 -.01104660  00000-0 -76290+0 0  9998
2 48233  87.7438 287.4715 0009867   2.6276  81.1830 14.02802750  3470
ONEWEB-0199             
1 48234U 21031AA  21198.58334491 -.01109811  00000-0 -85429+0 0  9996
2 48234  87.6917 287.4359 0006858   9.2599 272.8131 13.96702324  3509
ONEWEB-0203             
1 48235U 21031AB  21198.58334491 -.01043439  00000-0 -89929+0 0  9999
2 48235  87.6354 287.3796 0010663 358.1064  78.5228 13.89970767  3442
ONEWEB-0197             
1 48236U 21031AC  21198.58334491 -.00993565  00000-0 -89009+0 0  9992
2 48236  87.6433 287.3216 0008048  16.6240 312.8127 13.87566729  3498
ONEWEB-0194             
1 48237U 21031AD  21198.58334491 -.01023476  00000-0 -64941+0 0  9997
2 48237  87.7469 287.4572 0007379   7.9959 226.2638 14.07259192  3469
ONEWEB-0193             
1 48238U 21031AE  21198.58334491 -.00991677  00000-0 -65093+0 0  9993
2 48238  87.7337 287.3946 0007458 343.8418 339.2220 14.05275169  3459
ONEWEB-0191             
1 48239U 21031AF  21198.58334491 -.00930049  00000-0 -86669+0 0  9992
2 48239  87.6250 287.2926 0009411  12.4499  63.4013 13.85045050  3445
